ONEWEB-0171             
1 48070U 21025AE  25208.88261530  .00000002  00000+0 -29087-4 0  9991
2 48070  87.8965  24.6787 0001834  87.5146 272.6192 13.13468562211041
ONEWEB-0172             
1 48071U 21025AF  25208.86230572  .00000336  00000+0  88525-3 0  9992
2 48071  87.8965  24.6492 0001787  85.4972 274.6362 13.13469979211938
ONEWEB-0174             
1 48072U 21025AG  25208.91984566  .00000000  00000+0 -33830-4 0  9997
2 48072  87.8964  24.6513 0001677  92.9758 267.1563 13.13472133211267
ONEWEB-0175             
1 48073U 21025AH  25208.87415033  .00000212  00000+0  54442-3 0  9996
2 48073  87.8958  24.6256 0002018  83.0205 277.1153 13.13468677210918
ONEWEB-0177             
1 48074U 21025AJ  25208.88598804 -.00000081  00000+0 -25697-3 0  9992
2 48074  87.8965  24.6378 0001566  89.2184 270.9124 13.13468418211107
ONEWEB-0178             
1 48075U 21025AK  25208.90475707 -.00000268  00000+0 -76807-3 0  9998
2 48075  87.8968  24.6796 0001791  80.9720 279.1612 13.13471068211152
ONEWEB-0108             
1 48076U 21025AL  25208.86399258  .00000317  00000+0  83243-3 0  9995
2 48076  87.8960  24.6365 0001847  98.2741 261.8597 13.13469244211078
ONEWEB-0169             
1 48077U 21025AM  25208.89615881 -.00000266  00000+0 -76349-3 0  9996
2 48077  87.8965  24.6516 0001831  97.6214 262.5123 13.13469531209735
ONEWEB-0176             
1 48210U 21031A   25208.91723190  .00000093  00000+0  21585-3 0  9996
2 48210  87.9061 354.2250 0001866  94.8533 265.2810 13.14504376205715
ONEWEB-0184             
1 48211U 21031B   25208.89026263 -.00000180  00000+0 -52083-3 0  9997
2 48211  87.9062 354.1992 0002266  73.6217 286.5161 13.14501896205683
ONEWEB-0179             
1 48212U 21031C   25208.93704115  .00000181  00000+0  45294-3 0  9997
2 48212  87.9064 354.2081 0001706  96.5843 263.5481 13.14501915205731
ONEWEB-0180             
1 48213U 21031D   25208.89342609 -.00000183  00000+0 -52808-3 0  9992
2 48213  87.9063 354.2038 0001737  88.7378 271.3951 13.14503911205617
ONEWEB-0218             
1 48214U 21031E   25208.91564033  .00000085  00000+0  19476-3 0  9996
2 48214  87.9062 354.2003 0002042  68.2584 291.8763 13.14503858205776
ONEWEB-0209             
1 48215U 21031F   25208.90453255 -.00000121  00000+0 -36130-3 0  9998
2 48215  87.9064 354.2464 0001632  96.2819 263.8496 13.14504147205770
ONEWEB-0198             
1 48216U 21031G   25208.88866373 -.00000187  00000+0 -53866-3 0  9992
2 48216  87.9063 354.2507 0001624  81.4153 278.7161 13.14498860205886
ONEWEB-0189             
1 48217U 21031H   25208.90136372 -.00000177  00000+0 -51294-3 0  9997
2 48217  87.9060 354.2219 0001665  83.9134 276.2185 13.14501412205624
ONEWEB-0196             
1 48218U 21031J   25208.87916036 -.00000012  00000+0 -66353-4 0  9998
2 48218  87.9067 354.2383 0001787  92.3695 267.7639 13.14503981205627
