[{"OBJECT_NAME":"ONEWEB-0171","OBJECT_ID":"2021-025AE","EPOCH":"2025-07-27T21:10:57.961920","MEAN_MOTION":13.13468562,"ECCENTRICITY":0.0001834,"INCLINATION":87.8965,"RA_OF_ASC_NODE":24.6787,"ARG_OF_PERICENTER":87.5146,"MEAN_ANOMALY":272.6192,"EPHEMERIS_TYPE":0,"CLASSIFICATION_TYPE":"U","NORAD_CAT_ID":48070,"ELEMENT_SET_NO":999,"REV_AT_EPOCH":21104,"BSTAR":-2.9087e-5,"MEAN_MOTION_DOT":2.0e-8,"MEAN_MOTION_DDOT":0},{"OBJECT_NAME":"ONEWEB-0172","OBJECT_ID":"2021-025AF","EPOCH":"2025-07-27T20:41:43.214208","MEAN_MOTION":13.13469979,"ECCENTRICITY":0.0001787,"INCLINATION":87.8965,"RA_OF_ASC_NODE":24.6492,"ARG_OF_PERICENTER":85.4972,"MEAN_ANOMALY":274.6362,"EPHEMERIS_TYPE":0,"CLASSIFICATION_TYPE":"U","NORAD_CAT_ID":48071,"ELEMENT_SET_NO":999,"REV_AT_EPOCH":21193,"BSTAR":0.00088525,"MEAN_MOTION_DOT":3.36e-6,"MEAN_MOTION_DDOT":0},{"OBJECT_NAME":"ONEWEB-0174","OBJECT_ID":"2021-025AG","EPOCH":"2025-07-27T22:04:34.665024","MEAN_MOTION":13.13472133,"ECCENTRICITY":0.0001677,"INCLINATION":87.8964,"RA_OF_ASC_NODE":24.6513,"ARG_OF_PERICENTER":92.9758,"MEAN_ANOMALY":267.1563,"EPHEMERIS_TYPE":0,"CLASSIFICATION_TYPE":"U","NORAD_CAT_ID":48072,"ELEMENT_SET_NO":999,"REV_AT_EPOCH":21126,"BSTAR":-3.383e-5,"MEAN_MOTION_DOT":0,"MEAN_MOTION_DDOT":0},{"OBJECT_NAME":"ONEWEB-0175","OBJECT_ID":"2021-025AH","EPOCH":"2025-07-27T20:58:46.588512","MEAN_MOTION":13.13468677,"ECCENTRICITY":0.0002018,"INCLINATION":87.8958,"RA_OF_ASC_NODE":24.6256,"ARG_OF_PERICENTER":83.0205,"MEAN_ANOMALY":277.1153,"EPHEMERIS_TYPE":0,"CLASSIFICATION_TYPE":"U","NORAD_CAT_ID":48073,"ELEMENT_SET_NO":999,"REV_AT_EPOCH":21091,"BSTAR":0.00054442,"MEAN_MOTION_DOT":2.12e-6,"MEAN_MOTION_DDOT":0},{"OBJECT_NAME":"ONEWEB-0177","OBJECT_ID":"2021-025AJ","EPOCH":"2025-07-27T21:15:49.366656","MEAN_MOTION":13.13468418,"ECCENTRICITY":0.0001566,"INCLINATION":87.8965,"RA_OF_ASC_NODE":24.6378,"ARG_OF_PERICENTER":89.2184,"MEAN_ANOMALY":270.9124,"EPHEMERIS_TYPE":0,"CLASSIFICATION_TYPE":"U","NORAD_CAT_ID":48074,"ELEMENT_SET_NO":999,"REV_AT_EPOCH":21110,"BSTAR":-0.00025697,"MEAN_MOTION_DOT":-8.1e-7,"MEAN_MOTION_DDOT":0},{"OBJECT_NAME":"ONEWEB-0178","OBJECT_ID":"2021-025AK","EPOCH":"2025-07-27T21:42:51.010848","MEAN_MOTION":13.13471068,"ECCENTRICITY":0.0001791,"INCLINATION":87.8968,"RA_OF_ASC_NODE":24.6796,"ARG_OF_PERICENTER":80.972,"MEAN_ANOMALY":279.1612,"EPHEMERIS_TYPE":0,"CLASSIFICATION_TYPE":"U","NORAD_CAT_ID":48075,"ELEMENT_SET_NO":999,"REV_AT_EPOCH":21115,"BSTAR":-0.00076807,"MEAN_MOTION_DOT":-2.68e-6,"MEAN_MOTION_DDOT":0},{"OBJECT_NAME":"ONEWEB-0108","OBJECT_ID":"2021-025AL","EPOCH":"2025-07-27T20:44:08.958912","MEAN_MOTION":13.13469244,"ECCENTRICITY":0.0001847,"INCLINATION":87.896,"RA_OF_ASC_NODE":24.6365,"ARG_OF_PERICENTER":98.2741,"MEAN_ANOMALY":261.8597,"EPHEMERIS_TYPE":0,"CLASSIFICATION_TYPE":"U","NORAD_CAT_ID":48076,"ELEMENT_SET_NO":999,"REV_AT_EPOCH":21107,"BSTAR":0.00083243,"MEAN_MOTION_DOT":3.17e-6,"MEAN_MOTION_DDOT":0},{"OBJECT_NAME":"ONEWEB-0169","OBJECT_ID":"2021-025AM","EPOCH":"2025-07-27T21:30:28.121184","MEAN_MOTION":13.13469531,"ECCENTRICITY":0.0001831,"INCLINATION":87.8965,"RA_OF_ASC_NODE":24.6516,"ARG_OF_PERICENTER":97.6214,"MEAN_ANOMALY":262.5123,"EPHEMERIS_TYPE":0,"CLASSIFICATION_TYPE":"U","NORAD_CAT_ID":48077,"ELEMENT_SET_NO":999,"REV_AT_EPOCH":20973,"BSTAR":-0.00076349,"MEAN_MOTION_DOT":-2.66e-6,"MEAN_MOTION_DDOT":0},{"OBJECT_NAME":"ONEWEB-0176","OBJECT_ID":"2021-031A","EPOCH":"2025-07-27T22:00:48.836160","MEAN_MOTION":13.14504376,"ECCENTRICITY":0.0001866,"INCLINATION":87.9061,"RA_OF_ASC_NODE":354.225,"ARG_OF_PERICENTER":94.8533,"MEAN_ANOMALY":265.281,"EPHEMERIS_TYPE":0,"CLASSIFICATION_TYPE":"U","NORAD_CAT_ID":48210,"ELEMENT_SET_NO":999,"REV_AT_EPOCH":20571,"BSTAR":0.00021585,"MEAN_MOTION_DOT":9.3e-7,"MEAN_MOTION_DDOT":0},{"OBJECT_NAME":"ONEWEB-0184","OBJECT_ID":"2021-031B","EPOCH":"2025-07-27T21:21:58.691232","MEAN_MOTION":13.14501896,"ECCENTRICITY":0.0002266,"INCLINATION":87.9062,"RA_OF_ASC_NODE":354.1992,"ARG_OF_PERICENTER":73.6217,"MEAN_ANOMALY":286.5161,"EPHEMERIS_TYPE":0,"CLASSIFICATION_TYPE":"U","NORAD_CAT_ID":48211,"ELEMENT_SET_NO":999,"REV_AT_EPOCH":20568,"BSTAR":-0.00052083,"MEAN_MOTION_DOT":-1.8e-6,"MEAN_MOTION_DDOT":0},{"OBJECT_NAME":"ONEWEB-0179","OBJECT_ID":"2021-031C","EPOCH":"2025-07-27T22:29:20.355360","MEAN_MOTION":13.14501915,"ECCENTRICITY":0.0001706,"INCLINATION":87.9064,"RA_OF_ASC_NODE":354.2081,"ARG_OF_PERICENTER":96.5843,"MEAN_ANOMALY":263.5481,"EPHEMERIS_TYPE":0,"CLASSIFICATION_TYPE":"U","NORAD_CAT_ID":48212,"ELEMENT_SET_NO":999,"REV_AT_EPOCH":20573,"BSTAR":0.00045294,"MEAN_MOTION_DOT":1.81e-6,"MEAN_MOTION_DDOT":0},{"OBJECT_NAME":"ONEWEB-0180","OBJECT_ID":"2021-031D","EPOCH":"2025-07-27T21:26:32.014176","MEAN_MOTION":13.14503911,"ECCENTRICITY":0.0001737,"INCLINATION":87.9063,"RA_OF_ASC_NODE":354.2038,"ARG_OF_PERICENTER":88.7378,"MEAN_ANOMALY":271.3951,"EPHEMERIS_TYPE":0,"CLASSIFICATION_TYPE":"U","NORAD_CAT_ID":48213,"ELEMENT_SET_NO":999,"REV_AT_EPOCH":20561,"BSTAR":-0.00052808,"MEAN_MOTION_DOT":-1.83e-6,"MEAN_MOTION_DDOT":0},{"OBJECT_NAME":"ONEWEB-0218","OBJECT_ID":"2021-031E","EPOCH":"2025-07-27T21:58:31.324512","MEAN_MOTION":13.14503858,"ECCENTRICITY":0.0002042,"INCLINATION":87.9062,"RA_OF_ASC_NODE":354.2003,"ARG_OF_PERICENTER":68.2584,"MEAN_ANOMALY":291.8763,"EPHEMERIS_TYPE":0,"CLASSIFICATION_TYPE":"U","NORAD_CAT_ID":48214,"ELEMENT_SET_NO":999,"REV_AT_EPOCH":20577,"BSTAR":0.00019476,"MEAN_MOTION_DOT":8.5e-7,"MEAN_MOTION_DDOT":0},{"OBJECT_NAME":"ONEWEB-0209","OBJECT_ID":"2021-031F","EPOCH":"2025-07-27T21:42:31.612320","MEAN_MOTION":13.14504147,"ECCENTRICITY":0.0001632,"INCLINATION":87.9064,"RA_OF_ASC_NODE":354.2464,"ARG_OF_PERICENTER":96.2819,"MEAN_ANOMALY":263.8496,"EPHEMERIS_TYPE":0,"CLASSIFICATION_TYPE":"U","NORAD_CAT_ID":48215,"ELEMENT_SET_NO":999,"REV_AT_EPOCH":20577,"BSTAR":-0.0003613,"MEAN_MOTION_DOT":-1.21e-6,"MEAN_MOTION_DDOT":0},{"OBJECT_NAME":"ONEWEB-0198","OBJECT_ID":"2021-031G","EPOCH":"2025-07-27T21:19:40.546272","MEAN_MOTION":13.1449886,"ECCENTRICITY":0.0001624,"INCLINATION":87.9063,"RA_OF_ASC_NODE":354.2507,"ARG_OF_PERICENTER":81.4153,"MEAN_ANOMALY":278.7161,"EPHEMERIS_TYPE":0,"CLASSIFICATION_TYPE":"U","NORAD_CAT_ID":48216,"ELEMENT_SET_NO":999,"REV_AT_EPOCH":20588,"BSTAR":-0.00053866,"MEAN_MOTION_DOT":-1.87e-6,"MEAN_MOTION_DDOT":0},{"OBJECT_NAME":"ONEWEB-0189","OBJECT_ID":"2021-031H","EPOCH":"2025-07-27T21:37:57.825408","MEAN_MOTION":13.14501412,"ECCENTRICITY":0.0001665,"INCLINATION":87.906,"RA_OF_ASC_NODE":354.2219,"ARG_OF_PERICENTER":83.9134,"MEAN_ANOMALY":276.2185,"EPHEMERIS_TYPE":0,"CLASSIFICATION_TYPE":"U","NORAD_CAT_ID":48217,"ELEMENT_SET_NO":999,"REV_AT_EPOCH":20562,"BSTAR":-0.00051294,"MEAN_MOTION_DOT":-1.77e-6,"MEAN_MOTION_DDOT":0},{"OBJECT_NAME":"ONEWEB-0196","OBJECT_ID":"2021-031J","EPOCH":"2025-07-27T21:05:59.455104","MEAN_MOTION":13.14503981,"ECCENTRICITY":0.0001787,"INCLINATION":87.9067,"RA_OF_ASC_NODE":354.2383,"ARG_OF_PERICENTER":92.3695,"MEAN_ANOMALY":267.7639,"EPHEMERIS_TYPE":0,"CLASSIFICATION_TYPE":"U","NORAD_CAT_ID":48218,"ELEMENT_SET_NO":999,"REV_AT_EPOCH":20562,"BSTAR":-6.6353e-5,"MEAN_MOTION_DOT":-1.2e-7,"MEAN_MOTION_DDOT":0}]
